[{"OBJECT_NAME":"STARLINK-1513","OBJECT_ID":"2020-038BJ","EPOCH":"2026-03-09T15:00:15.367104","MEAN_MOTION":15.30234927,"ECCENTRICITY":9.51e-5,"INCLINATION":53.1601,"RA_OF_ASC_NODE":191.4505,"ARG_OF_PERICENTER":101.2977,"MEAN_ANOMALY":258.8131,"EPHEMERIS_TYPE":0,"CLASSIFICATION_TYPE":"U","NORAD_CAT_ID":45786,"ELEMENT_SET_NO":999,"REV_AT_EPOCH":31683,"BSTAR":0.0004075,"MEAN_MOTION_DOT":0.00011742,"MEAN_MOTION_DDOT":0},{"OBJECT_NAME":"CZ-2C R\/B","OBJECT_ID":"2014-014B","EPOCH":"2026-03-09T23:01:00.862464","MEAN_MOTION":15.34922702,"ECCENTRICITY":0.00700559,"INCLINATION":98.3314,"RA_OF_ASC_NODE":172.135,"ARG_OF_PERICENTER":276.2597,"MEAN_ANOMALY":83.0667,"EPHEMERIS_TYPE":0,"CLASSIFICATION_TYPE":"U","NORAD_CAT_ID":39625,"ELEMENT_SET_NO":999,"REV_AT_EPOCH":65564,"BSTAR":0.0004934259,"MEAN_MOTION_DOT":0.00018031,"MEAN_MOTION_DDOT":0}]
